FENGYUN 1C DEB          
1 31205U 99025BKK 26093.56915316  .00000509  00000+0  21323-3 0  9999
2 31205  99.2232 197.2624 0161065 238.1459 120.3955 14.24041093988022
FENGYUN 1C DEB          
1 31206U 99025BKL 26094.48610945  .00003424  00000+0  10408-2 0  9992
2 31206  98.8422  11.2182 0077626  27.1156 333.4053 14.41052519994692
FENGYUN 1C DEB          
1 31208U 99025BKN 26090.93022331  .00015440  00000+0  28621-2 0  9993
2 31208  99.2450 252.7826 0012915 289.9318 221.9237 14.65323401720762
FENGYUN 1C DEB          
1 31209U 99025BKP 26090.01422818  .00011181  00000+0  31559-2 0  9999
2 31209  98.8788 194.9270 0019946  27.8332 332.3921 14.45750061663710
FENGYUN 1C DEB          
1 31210U 99025BKQ 26094.94948348  .00000690  00000+0  39876-3 0  9992
2 31210  98.7225  97.8877 0016552 191.5244 188.3943 14.12163480975651
FENGYUN 1C DEB          
1 31211U 99025BKR 26092.85135633  .00002907  00000+0  13529-2 0  9995
2 31211  98.6585 131.5478 0052075 127.8790 232.7114 14.20573813648702
FENGYUN 1C DEB          
1 31212U 99025BKS 26092.54601597  .00002587  00000+0  13577-2 0  9996
2 31212  99.2036 132.2915 0073545 219.2638 140.3186 14.13727005972245
FENGYUN 1C DEB          
1 31215U 99025BKV 26091.85641184  .00002265  00000+0  79918-3 0  9993
2 31215  99.0654 306.2994 0068566   4.1321 356.0414 14.34476965981046
FENGYUN 1C DEB          
1 31217U 99025BKX 26093.24447737  .00001543  00000+0  73987-3 0  9996
2 31217  98.6404 103.1210 0098492 199.0909 160.6565 14.17892298979289
FENGYUN 1C DEB          
1 31218U 99025BKY 26095.10430802  .00044620  00000+0  56372-2 0  9990
2 31218  98.8378 220.9757 0008606  49.9026 310.2937 14.81669178987563
FENGYUN 1C DEB          
1 31219U 99025BKZ 26093.00646489  .00003255  00000+0  16728-2 0  9998
2 31219  99.2779 112.1362 0077753 224.4182 135.0737 14.14486156971428
FENGYUN 1C DEB          
1 31222U 99025BLC 26094.67872106  .00013993  00000+0  85114-3 0  9999
2 31222  98.5921 181.4139 0157941  60.0107 301.6684 15.00655759 16754
FENGYUN 1C DEB          
1 31223U 99025BLD 26095.15345122  .00007630  00000+0  61959-2 0  9998
2 31223  99.0226 340.8251 0232403  98.4186 264.3382 13.78454117942907
FENGYUN 1C DEB          
1 31224U 99025BLE 26093.74485844  .00001139  00000+0  40782-3 0  9998
2 31224  98.3805  86.2942 0156733 191.9278 348.5204 14.29220627708501
FENGYUN 1C DEB          
1 31225U 99025BLF 26095.19570802  .00003534  00000+0  16627-2 0  9990
2 31225  98.9774 174.8198 0087030  29.8933  32.8636 14.18644023974303
FENGYUN 1C DEB          
1 31226U 99025BLG 26088.72261177  .00000441  00000+0  18334-3 0  9996
2 31226  98.3567  88.7284 0125720 241.2545 117.5959 14.26901944635798
