[{"OBJECT_NAME":"FENGYUN 1C DEB","OBJECT_ID":"1999-025BKK","EPOCH":"2026-04-03T13:39:34.833024","MEAN_MOTION":14.24041093,"ECCENTRICITY":0.0161065,"INCLINATION":99.2232,"RA_OF_ASC_NODE":197.2624,"ARG_OF_PERICENTER":238.1459,"MEAN_ANOMALY":120.3955,"EPHEMERIS_TYPE":0,"CLASSIFICATION_TYPE":"U","NORAD_CAT_ID":31205,"ELEMENT_SET_NO":999,"REV_AT_EPOCH":98802,"BSTAR":0.00021323,"MEAN_MOTION_DOT":5.09e-6,"MEAN_MOTION_DDOT":0},{"OBJECT_NAME":"FENGYUN 1C DEB","OBJECT_ID":"1999-025BKL","EPOCH":"2026-04-04T11:39:59.856480","MEAN_MOTION":14.41052519,"ECCENTRICITY":0.00776265,"INCLINATION":98.8422,"RA_OF_ASC_NODE":11.2182,"ARG_OF_PERICENTER":27.1156,"MEAN_ANOMALY":333.4053,"EPHEMERIS_TYPE":0,"CLASSIFICATION_TYPE":"U","NORAD_CAT_ID":31206,"ELEMENT_SET_NO":999,"REV_AT_EPOCH":99469,"BSTAR":0.0010408017,"MEAN_MOTION_DOT":3.424e-5,"MEAN_MOTION_DDOT":0},{"OBJECT_NAME":"FENGYUN 1C DEB","OBJECT_ID":"1999-025BKN","EPOCH":"2026-03-31T22:19:31.293984","MEAN_MOTION":14.65323401,"ECCENTRICITY":0.0012915,"INCLINATION":99.245,"RA_OF_ASC_NODE":252.7826,"ARG_OF_PERICENTER":289.9318,"MEAN_ANOMALY":221.9237,"EPHEMERIS_TYPE":0,"CLASSIFICATION_TYPE":"U","NORAD_CAT_ID":31208,"ELEMENT_SET_NO":999,"REV_AT_EPOCH":72076,"BSTAR":0.0028620598,"MEAN_MOTION_DOT":0.0001544,"MEAN_MOTION_DDOT":0},{"OBJECT_NAME":"FENGYUN 1C DEB","OBJECT_ID":"1999-025BKP","EPOCH":"2026-03-31T00:20:29.314752","MEAN_MOTION":14.45750061,"ECCENTRICITY":0.00199462,"INCLINATION":98.8788,"RA_OF_ASC_NODE":194.927,"ARG_OF_PERICENTER":27.8332,"MEAN_ANOMALY":332.3921,"EPHEMERIS_TYPE":0,"CLASSIFICATION_TYPE":"U","NORAD_CAT_ID":31209,"ELEMENT_SET_NO":999,"REV_AT_EPOCH":66371,"BSTAR":0.0031558563,"MEAN_MOTION_DOT":0.00011181,"MEAN_MOTION_DDOT":0},{"OBJECT_NAME":"FENGYUN 1C DEB","OBJECT_ID":"1999-025BKQ","EPOCH":"2026-04-04T22:47:15.372672","MEAN_MOTION":14.1216348,"ECCENTRICITY":0.00165521,"INCLINATION":98.7225,"RA_OF_ASC_NODE":97.8877,"ARG_OF_PERICENTER":191.5244,"MEAN_ANOMALY":188.3943,"EPHEMERIS_TYPE":0,"CLASSIFICATION_TYPE":"U","NORAD_CAT_ID":31210,"ELEMENT_SET_NO":999,"REV_AT_EPOCH":97565,"BSTAR":0.00039875518,"MEAN_MOTION_DOT":6.9e-6,"MEAN_MOTION_DDOT":0},{"OBJECT_NAME":"FENGYUN 1C DEB","OBJECT_ID":"1999-025BKR","EPOCH":"2026-04-02T20:25:57.186912","MEAN_MOTION":14.20573813,"ECCENTRICITY":0.00520752,"INCLINATION":98.6585,"RA_OF_ASC_NODE":131.5478,"ARG_OF_PERICENTER":127.879,"MEAN_ANOMALY":232.7114,"EPHEMERIS_TYPE":0,"CLASSIFICATION_TYPE":"U","NORAD_CAT_ID":31211,"ELEMENT_SET_NO":999,"REV_AT_EPOCH":64870,"BSTAR":0.0013529486,"MEAN_MOTION_DOT":2.907e-5,"MEAN_MOTION_DDOT":0},{"OBJECT_NAME":"FENGYUN 1C DEB","OBJECT_ID":"1999-025BKS","EPOCH":"2026-04-02T13:06:15.779808","MEAN_MOTION":14.13727005,"ECCENTRICITY":0.00735452,"INCLINATION":99.2036,"RA_OF_ASC_NODE":132.2915,"ARG_OF_PERICENTER":219.2638,"MEAN_ANOMALY":140.3186,"EPHEMERIS_TYPE":0,"CLASSIFICATION_TYPE":"U","NORAD_CAT_ID":31212,"ELEMENT_SET_NO":999,"REV_AT_EPOCH":97224,"BSTAR":0.0013577331,"MEAN_MOTION_DOT":2.587e-5,"MEAN_MOTION_DDOT":0},{"OBJECT_NAME":"FENGYUN 1C DEB","OBJECT_ID":"1999-025BKV","EPOCH":"2026-04-01T20:33:13.982976","MEAN_MOTION":14.34476965,"ECCENTRICITY":0.00685661,"INCLINATION":99.0654,"RA_OF_ASC_NODE":306.2994,"ARG_OF_PERICENTER":4.1321,"MEAN_ANOMALY":356.0414,"EPHEMERIS_TYPE":0,"CLASSIFICATION_TYPE":"U","NORAD_CAT_ID":31215,"ELEMENT_SET_NO":999,"REV_AT_EPOCH":98104,"BSTAR":0.00079917714,"MEAN_MOTION_DOT":2.265e-5,"MEAN_MOTION_DDOT":0},{"OBJECT_NAME":"FENGYUN 1C DEB","OBJECT_ID":"1999-025BKX","EPOCH":"2026-04-03T05:52:02.844768","MEAN_MOTION":14.17892298,"ECCENTRICITY":0.0098492,"INCLINATION":98.6404,"RA_OF_ASC_NODE":103.121,"ARG_OF_PERICENTER":199.0909,"MEAN_ANOMALY":160.6565,"EPHEMERIS_TYPE":0,"CLASSIFICATION_TYPE":"U","NORAD_CAT_ID":31217,"ELEMENT_SET_NO":999,"REV_AT_EPOCH":97928,"BSTAR":0.00073987,"MEAN_MOTION_DOT":1.543e-5,"MEAN_MOTION_DDOT":0},{"OBJECT_NAME":"FENGYUN 1C DEB","OBJECT_ID":"1999-025BKY","EPOCH":"2026-04-05T02:30:12.212928","MEAN_MOTION":14.81669178,"ECCENTRICITY":0.00086061,"INCLINATION":98.8378,"RA_OF_ASC_NODE":220.9757,"ARG_OF_PERICENTER":49.9026,"MEAN_ANOMALY":310.2937,"EPHEMERIS_TYPE":0,"CLASSIFICATION_TYPE":"U","NORAD_CAT_ID":31218,"ELEMENT_SET_NO":999,"REV_AT_EPOCH":98756,"BSTAR":0.0056372273,"MEAN_MOTION_DOT":0.0004462,"MEAN_MOTION_DDOT":0},{"OBJECT_NAME":"FENGYUN 1C DEB","OBJECT_ID":"1999-025BKZ","EPOCH":"2026-04-03T00:09:18.566496","MEAN_MOTION":14.14486156,"ECCENTRICITY":0.0077753,"INCLINATION":99.2779,"RA_OF_ASC_NODE":112.1362,"ARG_OF_PERICENTER":224.4182,"MEAN_ANOMALY":135.0737,"EPHEMERIS_TYPE":0,"CLASSIFICATION_TYPE":"U","NORAD_CAT_ID":31219,"ELEMENT_SET_NO":999,"REV_AT_EPOCH":97142,"BSTAR":0.0016728238,"MEAN_MOTION_DOT":3.255e-5,"MEAN_MOTION_DDOT":0},{"OBJECT_NAME":"FENGYUN 1C DEB","OBJECT_ID":"1999-025BLC","EPOCH":"2026-04-04T16:17:21.499584","MEAN_MOTION":15.00655759,"ECCENTRICITY":0.01579415,"INCLINATION":98.5921,"RA_OF_ASC_NODE":181.4139,"ARG_OF_PERICENTER":60.0107,"MEAN_ANOMALY":301.6684,"EPHEMERIS_TYPE":0,"CLASSIFICATION_TYPE":"U","NORAD_CAT_ID":31222,"ELEMENT_SET_NO":999,"REV_AT_EPOCH":1675,"BSTAR":0.00085114376,"MEAN_MOTION_DOT":0.00013993,"MEAN_MOTION_DDOT":0},{"OBJECT_NAME":"FENGYUN 1C DEB","OBJECT_ID":"1999-025BLD","EPOCH":"2026-04-05T03:40:58.185408","MEAN_MOTION":13.78454117,"ECCENTRICITY":0.02324033,"INCLINATION":99.0226,"RA_OF_ASC_NODE":340.8251,"ARG_OF_PERICENTER":98.4186,"MEAN_ANOMALY":264.3382,"EPHEMERIS_TYPE":0,"CLASSIFICATION_TYPE":"U","NORAD_CAT_ID":31223,"ELEMENT_SET_NO":999,"REV_AT_EPOCH":94290,"BSTAR":0.0061958795,"MEAN_MOTION_DOT":7.63e-5,"MEAN_MOTION_DDOT":0},{"OBJECT_NAME":"FENGYUN 1C DEB","OBJECT_ID":"1999-025BLE","EPOCH":"2026-04-03T17:52:35.769216","MEAN_MOTION":14.29220627,"ECCENTRICITY":0.01567334,"INCLINATION":98.3805,"RA_OF_ASC_NODE":86.2942,"ARG_OF_PERICENTER":191.9278,"MEAN_ANOMALY":348.5204,"EPHEMERIS_TYPE":0,"CLASSIFICATION_TYPE":"U","NORAD_CAT_ID":31224,"ELEMENT_SET_NO":999,"REV_AT_EPOCH":70850,"BSTAR":0.00040782455,"MEAN_MOTION_DOT":1.139e-5,"MEAN_MOTION_DDOT":0},{"OBJECT_NAME":"FENGYUN 1C DEB","OBJECT_ID":"1999-025BLF","EPOCH":"2026-04-05T04:41:49.172928","MEAN_MOTION":14.18644023,"ECCENTRICITY":0.00870307,"INCLINATION":98.9774,"RA_OF_ASC_NODE":174.8198,"ARG_OF_PERICENTER":29.8933,"MEAN_ANOMALY":32.8636,"EPHEMERIS_TYPE":0,"CLASSIFICATION_TYPE":"U","NORAD_CAT_ID":31225,"ELEMENT_SET_NO":999,"REV_AT_EPOCH":97430,"BSTAR":0.0016626615,"MEAN_MOTION_DOT":3.534e-5,"MEAN_MOTION_DDOT":0},{"OBJECT_NAME":"FENGYUN 1C DEB","OBJECT_ID":"1999-025BLG","EPOCH":"2026-03-29T17:20:33.656928","MEAN_MOTION":14.26901944,"ECCENTRICITY":0.01257207,"INCLINATION":98.3567,"RA_OF_ASC_NODE":88.7284,"ARG_OF_PERICENTER":241.2545,"MEAN_ANOMALY":117.5959,"EPHEMERIS_TYPE":0,"CLASSIFICATION_TYPE":"U","NORAD_CAT_ID":31226,"ELEMENT_SET_NO":999,"REV_AT_EPOCH":63579,"BSTAR":0.00018334308,"MEAN_MOTION_DOT":4.41e-6,"MEAN_MOTION_DDOT":0}]
